STARLINK-4132           
1 53252U 22086L   26068.57346307  .00000105  00000+0  24676-4 0  9996
2 53252  53.2173 194.5921 0001138 104.9570 255.1548 15.08836694201069
STARLINK-6085           
1 57115U 23090Q   26068.53746065  .00027564  00000+0  15302-2 0  9997
2 57115  42.9983 264.1938 0019382 205.4773 154.5119 15.13089153150525
